{
  "type": "FeatureCollection",
  "features": [
    {
      "type": "Feature",
      "properties": {
        "norad_id": 40115,
        "name": "WORLDVIEW-3 (WV-3)",
        "group": "resource",
        "lat": -82.02432702258946,
        "lon": 129.3738061982367,
        "alt_km": 617.6219374020029,
        "timestamp": "2025-12-02T10:50:46.930364+00:00",
        "meta_object_name": "WORLDVIEW-3 (WV-3)",
        "meta_object_id": "2014-048A",
        "meta_epoch": "2025-12-02T04:46:43.028832",
        "meta_mean_motion": 14.85467296,
        "meta_eccentricity": 0.0004032,
        "meta_inclination": 97.8627,
        "meta_ra_of_asc_node": 48.6117,
        "meta_arg_of_pericenter": 223.2189,
        "meta_mean_anomaly": 136.871,
        "meta_ephemeris_type": 0,
        "meta_classification_type": "U",
        "meta_norad_cat_id": 40115,
        "meta_element_set_no": 999,
        "meta_rev_at_epoch": 61267,
        "meta_bstar": 0.0001754,
        "meta_mean_motion_dot": 1.459e-05,
        "meta_mean_motion_ddot": 0,
        "tle_line1": "1 40115U 14048A   25336.19910913  .00001459  00000+0  17540-3 0  9998",
        "tle_line2": "2 40115  97.8627  48.6117 0004032 223.2189 136.8710 14.85467296612675"
      },
      "geometry": {
        "type": "Point",
        "coordinates": [
          129.3738061982367,
          -82.02432702258946
        ]
      }
    },
    {
      "type": "Feature",
      "properties": {
        "norad_id": 40118,
        "name": "GAOFEN-2",
        "group": "resource",
        "lat": -81.94927253313341,
        "lon": 127.7111280673501,
        "alt_km": 638.2966407128624,
        "timestamp": "2025-12-02T10:50:46.930375+00:00",
        "meta_object_name": "GAOFEN-2",
        "meta_object_id": "2014-049A",
        "meta_epoch": "2025-12-02T04:45:59.168736",
        "meta_mean_motion": 14.80577582,
        "meta_eccentricity": 0.0008142,
        "meta_inclination": 98.04,
        "meta_ra_of_asc_node": 35.3482,
        "meta_arg_of_pericenter": 143.3516,
        "meta_mean_anomaly": 216.8254,
        "meta_ephemeris_type": 0,
        "meta_classification_type": "U",
        "meta_norad_cat_id": 40118,
        "meta_element_set_no": 999,
        "meta_rev_at_epoch": 61008,
        "meta_bstar": 0.00012637,
        "meta_mean_motion_dot": 9.16e-06,
        "meta_mean_motion_ddot": 0,
        "tle_line1": "1 40118U 14049A   25336.19860149  .00000916  00000+0  12637-3 0  9996",
        "tle_line2": "2 40118  98.0400  35.3482 0008142 143.3516 216.8254 14.80577582610080"
      },
      "geometry": {
        "type": "Point",
        "coordinates": [
          127.7111280673501,
          -81.94927253313341
        ]
      }
    },
    {
      "type": "Feature",
      "properties": {
        "norad_id": 40143,
        "name": "YAOGAN-21",
        "group": "resource",
        "lat": 80.73808309157484,
        "lon": -30.394134566748697,
        "alt_km": 481.0516648997682,
        "timestamp": "2025-12-02T10:50:46.930385+00:00",
        "meta_object_name": "YAOGAN-21",
        "meta_object_id": "2014-053A",
        "meta_epoch": "2025-12-02T04:10:24.754368",
        "meta_mean_motion": 15.23460813,
        "meta_eccentricity": 0.0010307,
        "meta_inclination": 97.1779,
        "meta_ra_of_asc_node": 19.9471,
        "meta_arg_of_pericenter": 73.7444,
        "meta_mean_anomaly": 286.4927,
        "meta_ephemeris_type": 0,
        "meta_classification_type": "U",
        "meta_norad_cat_id": 40143,
        "meta_element_set_no": 999,
        "meta_rev_at_epoch": 62493,
        "meta_bstar": 0.00035711,
        "meta_mean_motion_dot": 8.46e-05,
        "meta_mean_motion_ddot": 0,
        "tle_line1": "1 40143U 14053A   25336.17389762  .00008460  00000+0  35711-3 0  9994",
        "tle_line2": "2 40143  97.1779  19.9471 0010307  73.7444 286.4927 15.23460813624930"
      },
      "geometry": {
        "type": "Point",
        "coordinates": [
          -30.394134566748697,
          80.73808309157484
        ]
      }
    },
    {
      "type": "Feature",
      "properties": {
        "norad_id": 40275,
        "name": "YAOGAN-22",
        "group": "resource",
        "lat": 50.28898454343871,
        "lon": 106.51490508098287,
        "alt_km": 1200.4324428918717,
        "timestamp": "2025-12-02T10:50:46.930395+00:00",
        "meta_object_name": "YAOGAN-22",
        "meta_object_id": "2014-063A",
        "meta_epoch": "2025-12-02T03:17:03.280128",
        "meta_mean_motion": 13.15522128,
        "meta_eccentricity": 0.0005867,
        "meta_inclination": 100.7417,
        "meta_ra_of_asc_node": 119.4069,
        "meta_arg_of_pericenter": 273.8048,
        "meta_mean_anomaly": 86.2392,
        "meta_ephemeris_type": 0,
        "meta_classification_type": "U",
        "meta_norad_cat_id": 40275,
        "meta_element_set_no": 999,
        "meta_rev_at_epoch": 53390,
        "meta_bstar": 0.00014974,
        "meta_mean_motion_dot": 1e-07,
        "meta_mean_motion_ddot": 0,
        "tle_line1": "1 40275U 14063A   25336.13684352  .00000010  00000+0  14974-3 0  9991",
        "tle_line2": "2 40275 100.7417 119.4069 0005867 273.8048  86.2392 13.15522128533908"
      },
      "geometry": {
        "type": "Point",
        "coordinates": [
          106.51490508098287,
          50.28898454343871
        ]
      }
    },
    {
      "type": "Feature",
      "properties": {
        "norad_id": 40298,
        "name": "ASNARO",
        "group": "resource",
        "lat": -70.31313098848199,
        "lon": 73.85160965630654,
        "alt_km": 518.2343252353776,
        "timestamp": "2025-12-02T10:50:46.930405+00:00",
        "meta_object_name": "ASNARO",
        "meta_object_id": "2014-070A",
        "meta_epoch": "2025-12-02T04:50:28.226976",
        "meta_mean_motion": 15.19801615,
        "meta_eccentricity": 0.0007059,
        "meta_inclination": 97.3671,
        "meta_ra_of_asc_node": 52.4079,
        "meta_arg_of_pericenter": 131.2316,
        "meta_mean_anomaly": 228.9529,
        "meta_ephemeris_type": 0,
        "meta_classification_type": "U",
        "meta_norad_cat_id": 40298,
        "meta_element_set_no": 999,
        "meta_rev_at_epoch": 61409,
        "meta_bstar": 0.00057599,
        "meta_mean_motion_dot": 0.00012286,
        "meta_mean_motion_ddot": 0,
        "tle_line1": "1 40298U 14070A   25336.20171559  .00012286  00000+0  57599-3 0  9990",
        "tle_line2": "2 40298  97.3671  52.4079 0007059 131.2316 228.9529 15.19801615614097"
      },
      "geometry": {
        "type": "Point",
        "coordinates": [
          73.85160965630654,
          -70.31313098848199
        ]
      }
    },
    {
      "type": "Feature",
      "properties": {
        "norad_id": 40310,
        "name": "YAOGAN-24",
        "group": "resource",
        "lat": 56.18305168144908,
        "lon": 95.18215835584229,
        "alt_km": 640.0156721370158,
        "timestamp": "2025-12-02T10:50:46.930415+00:00",
        "meta_object_name": "YAOGAN-24",
        "meta_object_id": "2014-072A",
        "meta_epoch": "2025-12-02T05:42:27.717120",
        "meta_mean_motion": 14.76139628,
        "meta_eccentricity": 0.001418,
        "meta_inclination": 98.1217,
        "meta_ra_of_asc_node": 107.2758,
        "meta_arg_of_pericenter": 170.6265,
        "meta_mean_anomaly": 189.5211,
        "meta_ephemeris_type": 0,
        "meta_classification_type": "U",
        "meta_norad_cat_id": 40310,
        "meta_element_set_no": 999,
        "meta_rev_at_epoch": 59466,
        "meta_bstar": 0.00018285,
        "meta_mean_motion_dot": 1.212e-05,
        "meta_mean_motion_ddot": 0,
        "tle_line1": "1 40310U 14072A   25336.23782080  .00001212  00000+0  18285-3 0  9993",
        "tle_line2": "2 40310  98.1217 107.2758 0014180 170.6265 189.5211 14.76139628594663"
      },
      "geometry": {
        "type": "Point",
        "coordinates": [
          95.18215835584229,
          56.18305168144908
        ]
      }
    },
    {
      "type": "Feature",
      "properties": {
        "norad_id": 40336,
        "name": "CBERS 4",
        "group": "resource",
        "lat": -40.36082119028877,
        "lon": -152.3350197446703,
        "alt_km": 779.8797700933737,
        "timestamp": "2025-12-02T10:50:46.930425+00:00",
        "meta_object_name": "CBERS 4",
        "meta_object_id": "2014-079A",
        "meta_epoch": "2025-12-02T04:48:09.487584",
        "meta_mean_motion": 14.35527281,
        "meta_eccentricity": 0.0001413,
        "meta_inclination": 98.3324,
        "meta_ra_of_asc_node": 34.5769,
        "meta_arg_of_pericenter": 128.0866,
        "meta_mean_anomaly": 232.0448,
        "meta_ephemeris_type": 0,
        "meta_classification_type": "U",
        "meta_norad_cat_id": 40336,
        "meta_element_set_no": 999,
        "meta_rev_at_epoch": 57569,
        "meta_bstar": 8.0889e-05,
        "meta_mean_motion_dot": 1.91e-06,
        "meta_mean_motion_ddot": 0,
        "tle_line1": "1 40336U 14079A   25336.20010981  .00000191  00000+0  80889-4 0  9994",
        "tle_line2": "2 40336  98.3324  34.5769 0001413 128.0866 232.0448 14.35527281575694"
      },
      "geometry": {
        "type": "Point",
        "coordinates": [
          -152.3350197446703,
          -40.36082119028877
        ]
      }
    }
  ]
}